ONEWEB-0403             
1 50483U 21132Q   24150.44339457  .00000100  00000+0  21988-3 0  9991
2 50483  87.9125 124.5107 0001826  87.8000 272.3341 13.18686585122912
ONEWEB-0404             
1 50484U 21132R   24150.55499725 -.00000322  00000+0 -94537-3 0  9997
2 50484  87.8972 170.0116 0001555  87.5081 272.6225 13.11419649117571
ONEWEB-0405             
1 50485U 21132S   24150.45918967  .00000083  00000+0  17776-3 0  9993
2 50485  87.9126 124.4969 0001973 100.1065 260.0289 13.18688412123314
ONEWEB-0407             
1 50487U 21132U   24150.44180926  .00000099  00000+0  21740-3 0  9993
2 50487  87.9123 124.5143 0001958  90.0142 270.1215 13.18687333122887
ONEWEB-0409             
1 50488U 21132V   24150.55329250 -.00000573  00000+0 -16519-2 0  9997
2 50488  87.8962 170.0103 0001648  75.2631 284.8679 13.11417471118747
ONEWEB-0412             
1 50489U 21132W   24150.43074424  .00000106  00000+0  23586-3 0  9998
2 50489  87.9129 124.5149 0001976 101.3291 258.8063 13.18684008122972
ONEWEB-0413             
1 50490U 21132X   24150.43548619  .00000096  00000+0  21095-3 0  9993
2 50490  87.9128 124.5272 0002173  97.8065 262.3314 13.18684072122912
